{
    "links": {
        "self": "http://www.neowsapp.com/rest/v1/neo/3788140?api_key=iIulBulltgU6a56xZRHN4H3l9WmuAYTsLGpBGhQ2"
    },
    "id": "3788140",
    "neo_reference_id": "3788140",
    "name": "(2017 UB43)",
    "designation": "2017 UB43",
    "nasa_jpl_url": "http://ssd.jpl.nasa.gov/sbdb.cgi?sstr=3788140",
    "absolute_magnitude_h": 24.0,
    "estimated_diameter": {
        "kilometers": {
            "estimated_diameter_min": 0.0421264611,
            "estimated_diameter_max": 0.0941976306
        },
        "meters": {
            "estimated_diameter_min": 42.1264610556,
            "estimated_diameter_max": 94.1976305719
        },
        "miles": {
            "estimated_diameter_min": 0.0261761612,
            "estimated_diameter_max": 0.0585316759
        },
        "feet": {
            "estimated_diameter_min": 138.2101784897,
            "estimated_diameter_max": 309.0473542854
        }
    },
    "is_potentially_hazardous_asteroid": false,
    "close_approach_data": [
        {
            "close_approach_date": "1995-10-23",
            "close_approach_date_full": "1995-Oct-23 14:37",
            "epoch_date_close_approach": 814459020000,
            "relative_velocity": {
                "kilometers_per_second": "12.2287192191",
                "kilometers_per_hour": "44023.3891887373",
                "miles_per_hour": "27354.4220211907"
            },
            "miss_distance": {
                "astronomical": "0.2012440997",
                "lunar": "78.2839547833",
                "kilometers": "30105688.665187639",
                "miles": "18706807.4903578582"
            },
            "orbiting_body": "Earth"
        },
        {
            "close_approach_date": "2006-10-26",
            "close_approach_date_full": "2006-Oct-26 05:12",
            "epoch_date_close_approach": 1161839520000,
            "relative_velocity": {
                "kilometers_per_second": "12.5300378319",
                "kilometers_per_hour": "45108.1361947918",
                "miles_per_hour": "28028.4416261471"
            },
            "miss_distance": {
                "astronomical": "0.1296769737",
                "lunar": "50.4443427693",
                "kilometers": "19399399.053566019",
                "miles": "12054227.6099243022"
            },
            "orbiting_body": "Earth"
        },
        {
            "close_approach_date": "2017-10-28",
            "close_approach_date_full": "2017-Oct-28 13:44",
            "epoch_date_close_approach": 1509198240000,
            "relative_velocity": {
                "kilometers_per_second": "13.2070956885",
                "kilometers_per_hour": "47545.5444786601",
                "miles_per_hour": "29542.952345643"
            },
            "miss_distance": {
                "astronomical": "0.1157137466",
                "lunar": "45.0126474274",
                "kilometers": "17310530.021079742",
                "miles": "10756264.5804827596"
            },
            "orbiting_body": "Earth"
        },
        {
            "close_approach_date": "2028-10-31",
            "close_approach_date_full": "2028-Oct-31 08:59",
            "epoch_date_close_approach": 1856595540000,
            "relative_velocity": {
                "kilometers_per_second": "14.3414805743",
                "kilometers_per_hour": "51629.3300674213",
                "miles_per_hour": "32080.4578966152"
            },
            "miss_distance": {
                "astronomical": "0.1646161924",
                "lunar": "64.0356988436",
                "kilometers": "24626231.750550188",
                "miles": "15302030.8451930744"
            },
            "orbiting_body": "Earth"
        },
        {
            "close_approach_date": "2039-11-05",
            "close_approach_date_full": "2039-Nov-05 00:53",
            "epoch_date_close_approach": 2204067180000,
            "relative_velocity": {
                "kilometers_per_second": "16.1954650129",
                "kilometers_per_hour": "58303.6740466168",
                "miles_per_hour": "36227.6356874658"
            },
            "miss_distance": {
                "astronomical": "0.2636972472",
                "lunar": "102.5782291608",
                "kilometers": "39448546.505983464",
                "miles": "24512190.1534572432"
            },
            "orbiting_body": "Earth"
        }
    ],
    "orbital_data": {
        "orbit_id": "5",
        "orbit_determination_date": "2017-11-28 06:48:58",
        "first_observation_date": "2017-10-28",
        "last_observation_date": "2017-11-27",
        "data_arc_in_days": 30,
        "observations_used": 43,
        "orbit_uncertainty": "7",
        "minimum_orbit_intersection": ".114498",
        "jupiter_tisserand_invariant": "4.057",
        "epoch_osculation": "2459000.5",
        "eccentricity": ".3636645628963658",
        "semi_major_axis": "1.693099312678877",
        "inclination": "22.18081132450429",
        "ascending_node_longitude": "219.3604854076097",
        "orbital_period": "804.6779058043938",
        "perihelion_distance": "1.077379091193376",
        "perihelion_argument": "151.2841584860259",
        "aphelion_distance": "2.308819534164378",
        "perihelion_time": "2458837.234314560007",
        "mean_anomaly": "73.04245131428412",
        "mean_motion": ".4473839748838724",
        "equinox": "J2000",
        "orbit_class": {
            "orbit_class_type": "AMO",
            "orbit_class_description": "Near-Earth asteroid orbits similar to that of 1221 Amor",
            "orbit_class_range": "1.017 AU < q (perihelion) < 1.3 AU"
        }
    },
    "is_sentry_object": false
}